STARLINK-2689
1 18463C 21040AM  21326.16405576 -.00012814  00000-0 -85829-3 0  3267
2 18463  53.0568  33.0063 0001387  65.5441   9.5511 15.06422003    18
